[
    {
        "Altitude(m)": 607897.6097609476,
        "Argument of Periapsis(deg)": 0.0,
        "Eccentricity": 0.0,
        "Inclination(deg)": 60.0,
        "Latitude(deg)": -14.292907038004223,
        "Longitude(deg)": 136.61874035558122,
        "Mean Anomaly(deg)": -16.363599999999984,
        "RAAN(deg)": 245.0,
        "Satellite Name": "Test1 1099",
        "Satellite Number": 1099,
        "Semi-Major Axis(m)": 6980739.136638005,
        "Time(s)": 0
    },
    {
        "Altitude(m)": 607750.8112647533,
        "Argument of Periapsis(deg)": 0.00010418945913296404,
        "Eccentricity": 0.0,
        "Inclination(deg)": 60.0,
        "Latitude(deg)": -13.758748730658372,
        "Longitude(deg)": 136.90580982275597,
        "Mean Anomaly(deg)": -15.743493854538132,
        "RAAN(deg)": 244.99957995086027,
        "Satellite Name": "Test1 1099",
        "Satellite Number": 1099,
        "Semi-Major Axis(m)": 6980739.136638005,
        "Time(s)": 10
    }
]